{
    "links": {
        "self": "http://www.neowsapp.com/rest/v1/neo/3384029?api_key=iIulBulltgU6a56xZRHN4H3l9WmuAYTsLGpBGhQ2"
    },
    "id": "3384029",
    "neo_reference_id": "3384029",
    "name": "(2007 RY8)",
    "designation": "2007 RY8",
    "nasa_jpl_url": "http://ssd.jpl.nasa.gov/sbdb.cgi?sstr=3384029",
    "absolute_magnitude_h": 25.2,
    "estimated_diameter": {
        "kilometers": {
            "estimated_diameter_min": 0.0242412481,
            "estimated_diameter_max": 0.0542050786
        },
        "meters": {
            "estimated_diameter_min": 24.2412481101,
            "estimated_diameter_max": 54.2050786336
        },
        "miles": {
            "estimated_diameter_min": 0.0150628086,
            "estimated_diameter_max": 0.0336814639
        },
        "feet": {
            "estimated_diameter_min": 79.5316564495,
            "estimated_diameter_max": 177.8381901842
        }
    },
    "is_potentially_hazardous_asteroid": false,
    "close_approach_data": [
        {
            "close_approach_date": "2007-07-29",
            "close_approach_date_full": "2007-Jul-29 05:04",
            "epoch_date_close_approach": 1185685440000,
            "relative_velocity": {
                "kilometers_per_second": "11.7797848488",
                "kilometers_per_hour": "42407.2254556177",
                "miles_per_hour": "26350.200728242"
            },
            "miss_distance": {
                "astronomical": "0.0423229628",
                "lunar": "16.4636325292",
                "kilometers": "6331425.086969236",
                "miles": "3934165.1193820168"
            },
            "orbiting_body": "Venus"
        },
        {
            "close_approach_date": "2007-09-02",
            "close_approach_date_full": "2007-Sep-02 16:14",
            "epoch_date_close_approach": 1188749640000,
            "relative_velocity": {
                "kilometers_per_second": "14.7778332529",
                "kilometers_per_hour": "53200.1997105192",
                "miles_per_hour": "33056.5352034612"
            },
            "miss_distance": {
                "astronomical": "0.0291547429",
                "lunar": "11.3411949881",
                "kilometers": "4361487.438237623",
                "miles": "2710102.6249922774"
            },
            "orbiting_body": "Earth"
        }
    ],
    "orbital_data": {
        "orbit_id": "10",
        "orbit_determination_date": "2017-04-06 09:06:07",
        "first_observation_date": "2007-09-09",
        "last_observation_date": "2007-09-17",
        "data_arc_in_days": 8,
        "observations_used": 20,
        "orbit_uncertainty": "9",
        "minimum_orbit_intersection": ".01588",
        "jupiter_tisserand_invariant": "4.750",
        "epoch_osculation": "2454355.5",
        "eccentricity": ".4945449256547457",
        "semi_major_axis": "1.344003213928314",
        "inclination": "5.951713523925126",
        "ascending_node_longitude": "352.6328270065569",
        "orbital_period": "569.1135000955132",
        "perihelion_distance": ".6793332444163969",
        "perihelion_argument": "258.3562940489385",
        "aphelion_distance": "2.008673183440232",
        "perihelion_time": "2454289.947960881829",
        "mean_anomaly": "41.46577805408065",
        "mean_motion": ".6325627488006907",
        "equinox": "J2000",
        "orbit_class": {
            "orbit_class_type": "APO",
            "orbit_class_description": "Near-Earth asteroid orbits which cross the Earth’s orbit similar to that of 1862 Apollo",
            "orbit_class_range": "a (semi-major axis) > 1.0 AU; q (perihelion) < 1.017 AU"
        }
    },
    "is_sentry_object": false
}